COSMOS 2361 [-]         
1 25590U 98076A   22228.20052420  .00000063  00000+0  51956-4 0  9990
2 25590  82.9369 162.0028 0032659  44.1529  69.4570 13.73025333184733
COSMOS 2378 [-]         
1 26818U 01023A   22227.74981243  .00000027  00000+0  12545-4 0  9993
2 26818  82.9297 180.2615 0033104 352.4595   7.6061 13.73973077 62455
COSMOS 2389 [-]         
1 27436U 02026A   22228.19580237  .00000054  00000+0  40525-4 0  9991
2 27436  82.9515 125.8026 0045612 207.6327 306.4011 13.74979973 14631
COSMOS 2398 [-]         
1 27818U 03023A   22227.69557610  .00000054  00000+0  42576-4 0  9994
2 27818  82.9470  87.9567 0030002 246.9606 112.8394 13.72215062961517
COSMOS 2407 [+]         
1 28380U 04028A   22227.76549636  .00000044  00000+0  29614-4 0  9999
2 28380  82.9596  32.5078 0038407 210.1035 149.7920 13.76117935907316
COSMOS 2414 [+]         
1 28521U 05002A   22228.67355536  .00000031  00000+0  12758-4 0  9991
2 28521  82.9499  22.6982 0040616   4.3649 355.7864 13.87662089889905
COSMOS 2429 [-]         
1 32052U 07038A   22228.33601203  .00000064  00000+0  51254-4 0  9994
2 32052  82.9833 158.2000 0038146 184.9585 175.1199 13.74966317749229
COSMOS 2454 [-]         
1 35635U 09039A   22228.48959205  .00000035  00000+0  16183-4 0  9991
2 35635  82.9577   9.0747 0018403 310.0071  49.9475 13.89691860663034
COSMOS 2463 [+]         
1 36519U 10017A   22228.17424372  .00000042  00000+0  29883-4 0  9998
2 36519  82.9610 198.9371 0037515  58.4299 312.3166 13.71477834615973
